SatCatId,ObjectName,LaunchYear,Status,StatusCode,OrbitClass,LaunchMass,UcsData,OrbitalPeriod,LaunchSiteCountry,Owner,UseType,Purpose,LaunchVehicleClass,TLE1,TLE2
47670,STARLINK-2062,2021,Active,+,LEO,260.0,1,95.59,USA,USA,Commercial,Communications,Falcon,1 47670U 21012BC  22110.50359688 -.00000512  00000+0 -15487-4 0  9998,2 47670  53.0552 302.5827 0002195  37.6486 322.4656 15.06395451 66351
47671,STARLINK-2064,2021,Active,+,LEO,260.0,1,95.59,USA,USA,Commercial,Communications,Falcon,1 47671U 21012BD  22110.81689593 -.00000069  00000+0  14252-4 0  9999,2 47671  53.0530 301.1853 0001497  71.2836 288.8316 15.06404309 65898
47672,STARLINK-2065,2021,Active,+,LEO,260.0,1,95.59,USA,USA,Commercial,Communications,Falcon,1 47672U 21012BE  22110.79571291 -.00001007  00000+0 -48694-4 0  9993,2 47672  53.0556 291.2786 0001351  83.5611 276.5532 15.06402132 66524
47673,STARLINK-2066,2021,Active,+,LEO,260.0,1,95.59,USA,USA,Commercial,Communications,Falcon,1 47673U 21012BF  22110.50728396  .00001266  00000+0  10382-3 0  9990,2 47673  53.0554 302.5827 0001617  66.5719 293.5440 15.06410099 66359
47674,STARLINK-2067,2021,Active,+,LEO,260.0,1,95.59,USA,USA,Commercial,Communications,Falcon,1 47674U 21012BG  22110.85375232  .00001353  00000+0  10967-3 0  9992,2 47674  53.0544 301.0089 0001427  69.3931 290.7210 15.06407743 66412
47675,STARLINK-2078,2021,Active,+,LEO,260.0,1,95.59,USA,USA,Commercial,Communications,Falcon,1 47675U 21012BH  22110.24927051  .00004870  00000+0  34543-3 0  9991,2 47675  53.0533 303.7403 0001476  64.6783 295.4359 15.06416438 66324
47676,STARLINK-2083,2021,Active,+,LEO,260.0,1,95.59,USA,USA,Commercial,Communications,Falcon,1 47676U 21012BJ  22111.25001157  .00096918  00000+0  64490-2 0  9991,2 47676  53.0544 189.2401 0001834  48.7066   6.4882 15.06328571 67497
47677,STARLINK-2090,2021,Active,+,LEO,260.0,1,95.59,USA,USA,Commercial,Communications,Falcon,1 47677U 21012BK  22111.09887116  .00007078  00000+0  49352-3 0  9991,2 47677  53.0534 319.9346 0001538  63.4933 296.6214 15.06405754 65652
47679,STARLINK-2095,2021,Active,+,LEO,260.0,1,95.59,USA,USA,Commercial,Communications,Falcon,1 47679U 21012BM  22110.86203391  .00000935  00000+0  81646-4 0  9992,2 47679  53.0544 320.9981 0001308  85.1964 274.9174 15.06407459 66145
47684,FLOCK 4S-46,2021,Active,+,LEO,4.0,1,95.06,USA,USA,Commercial,Earth Observation,Falcon,1 47684U 21006EK  22110.86716472  .00005013  00000+0  27161-3 0  9993,2 47684  97.4481 171.2596 0009113 135.6288 224.5676 15.15013042 68550
47685,FLOCK 4S-47,2021,Active,+,LEO,4.0,1,95.06,USA,USA,Commercial,Earth Observation,Falcon,1 47685U 21006EL  22110.46996886  .00008453  00000+0  45518-3 0  9996,2 47685  97.4459 170.3541 0008112 130.1268 230.0676 15.15041918 69435
47686,FLOCK 4S-44,2021,Active,+,LEO,4.0,1,95.07,USA,USA,Commercial,Earth Observation,Falcon,1 47686U 21006EM  22111.11686959  .00009052  00000+0  48662-3 0  9996,2 47686  97.4501 171.5306 0013116 120.6731 239.5796 15.15031567 68586
47687,FLOCK 4S-43,2021,Active,+,LEO,4.0,1,95.06,USA,USA,Commercial,Earth Observation,Falcon,1 47687U 21006EN  22110.90422158  .00004938  00000+0  26800-3 0  9990,2 47687  97.4475 170.9178 0008320 118.2909 241.9163 15.14965268 69509
47688,FLOCK 4S-45,2021,Active,+,LEO,4.0,1,95.06,USA,USA,Commercial,Earth Observation,Falcon,1 47688U 21006EP  22111.11467278  .00007904  00000+0  42493-3 0  9999,2 47688  97.4482 171.0282 0012379 107.9394 252.3189 15.15079658 69524
47691,YAOGAN-31 G,2021,Active,+,LEO,-1.0,1,107.05,PRC,China,Military,Earth Observation,Long March,1 47691U 21014A   22111.10068083 -.00000090  00000+0  00000+0 0  9996,2 47691  63.4053 136.7256 0041148 348.7196  11.2907 13.45224920 56649
47692,OBJECT B,2021,Active,+,LEO,-1.0,0,107.16,PRC,China,Unknown,Unknown,Unknown,1 47692U 21014B   22111.12358790 -.00000090  00000+0  00000+0 0  9996,2 47692  63.4076 139.5423 0035712 350.4044   9.6325 13.43806480 56576
47693,YAOGAN-31 H,2021,Active,+,LEO,-1.0,1,107.05,PRC,China,Military,Earth Observation,Long March,1 47693U 21014C   22111.10067778 -.00000090  00000+0  00000+0 0  9998,2 47693  63.4064 137.6480 0041350 348.5748  11.4342 13.45224970 56615
47695,YAOGAN-31 J,2021,Active,+,LEO,-1.0,1,107.05,PRC,China,Military,Earth Observation,Long March,1 47695U 21014E   22111.10046759 -.00000090  00000+0  00000+0 0  9996,2 47695  63.4047 136.7000 0041347 348.7612  11.2496 13.45224684 56636
47698,FLOCK 4S-41,2021,Active,+,LEO,4.0,1,95.07,USA,USA,Commercial,Earth Observation,Falcon,1 47698U 21006ER  22111.14140025  .00004672  00000+0  25352-3 0  9995,2 47698  97.4537 171.5489 0011925 117.7928 242.4515 15.14973788 68571
47699,AMAZONIA 1,2021,Active,+,LEO,637.0,1,99.94,India,Brazil,Government,Earth Observation,PSLV,1 47699U 21015A   22110.48936274 -.00000044  00000+0  00000+0 0  9990,2 47699  98.4618 187.8313 0001427 107.0522 253.0835 14.40805920 59952
47701,SAI-1 NANOCONNECT-2,2021,Active,+,LEO,3.0,1,94.41,India,USA,Civil,Technology Development,PSLV,1 47701U 21015C   22110.49208037  .00012220  00000+0  47969-3 0  9991,2 47701  97.4247 187.7578 0010175 299.4648  60.5574 15.25819827 63377
47702,SINE (SINDHUNETRA),2021,Active,+,LEO,-1.0,0,94.43,India,India,Unknown,Unknown,Unknown,1 47702U 21015D   22111.20887286  .00011713  00000+0  46771-3 0  9997,2 47702  97.4291 188.4087 0010153 287.2651  72.7476 15.25257486 63457
47703,SPACEBEE-87,2021,Active,+,LEO,2.0,1,94.15,India,USA,Commercial,Communications,PSLV,1 47703U 21015E   22110.47806754  .00036665  00000+0  12420-2 0  9993,2 47703  97.4182 187.7213 0007958 267.4027  92.6303 15.30451409 63385
47704,SPACEBEE-86,2021,Active,+,LEO,2.0,1,94.13,India,USA,Commercial,Communications,PSLV,1 47704U 21015F   22110.45007738  .00037319  00000+0  12491-2 0  9992,2 47704  97.4175 187.7439 0007817 266.4195  93.6152 15.30836476 63369
47705,SPACEBEE-85,2021,Active,+,LEO,2.0,1,94.13,India,USA,Commercial,Communications,PSLV,1 47705U 21015G   22110.44967713  .00036638  00000+0  12257-2 0  9993,2 47705  97.4177 187.7417 0007815 265.8510  94.1838 15.30856861 63389
47706,SPACEBEE-84,2021,Active,+,LEO,2.0,1,94.12,India,USA,Commercial,Communications,PSLV,1 47706U 21015H   22110.44410593  .00037793  00000+0  12601-2 0  9999,2 47706  97.4173 187.7483 0007888 266.0726  93.9613 15.30957849 63387
47707,SPACEBEE-83,2021,Active,+,LEO,2.0,1,94.12,India,USA,Commercial,Communications,PSLV,1 47707U 21015J   22110.84733060  .00036306  00000+0  12093-2 0  9995,2 47707  97.4169 188.1226 0007985 266.3222  93.7106 15.30998505 63441
47708,SPACEBEE-82,2021,Active,+,LEO,2.0,1,94.1,India,USA,Commercial,Communications,PSLV,1 47708U 21015K   22110.86988680  .00038157  00000+0  12552-2 0  9994,2 47708  97.4168 188.2322 0007808 262.3225  97.7129 15.31391220 63454
47709,SPACEBEE-81,2021,Active,+,LEO,2.0,1,94.09,India,USA,Commercial,Communications,PSLV,1 47709U 21015L   22111.18418631  .00042547  00000+0  13885-2 0  9993,2 47709  97.4171 188.5826 0007909 262.2136  97.8207 15.31622638 63428
47710,SPACEBEE-78,2021,Active,+,LEO,2.0,1,94.07,India,USA,Commercial,Communications,PSLV,1 47710U 21015M   22111.16106612  .00046995  00000+0  15148-2 0  9991,2 47710  97.4170 188.6124 0007856 261.4185  98.6167 15.31996329 63501
47711,SPACEBEE-76,2021,Active,+,LEO,2.0,1,94.04,India,USA,Commercial,Communications,PSLV,1 47711U 21015N   22110.20395248  .00043974  00000+0  13977-2 0  9993,2 47711  97.4172 187.7519 0007678 263.3668  96.6699 15.32463675 63367
47712,SPACEBEE-80,2021,Active,+,LEO,2.0,1,94.08,India,USA,Commercial,Communications,PSLV,1 47712U 21015P   22110.84856312  .00039136  00000+0  12739-2 0  9998,2 47712  97.4170 188.2646 0007940 262.4562  97.5777 15.31724595 63455
47714,SPACEBEE-77,2021,Active,+,LEO,2.0,1,94.05,India,USA,Commercial,Communications,PSLV,1 47714U 21015Q   22110.47966677  .00044908  00000+0  14340-2 0  9998,2 47714  97.4175 187.9994 0007826 262.8321  97.2031 15.32309535 63324
47715,SPACEBEE-79,2021,Active,+,LEO,2.0,1,94.08,India,USA,Commercial,Communications,PSLV,1 47715U 21015R   22110.20357935  .00042330  00000+0  13811-2 0  9990,2 47715  97.4190 187.6383 0007702 266.2486  93.7874 15.31632743 63352
47719,ARKTIKA-M 1,2021,Active,+,MEO,2200.0,1,717.82,Kazakhstan,Russia/USSR,Government,Earth Observation,Soyuz,1 47719U 21016A   22110.55978141  .00000054  00000+0  00000+0 0  9991,2 47719  63.1798 241.0870 7014984 270.6657 304.7948  2.00605666  8332
47721,SDSAT,2021,Active,+,LEO,-1.0,0,94.45,India,India,Unknown,Unknown,Unknown,1 47721U 21015V   22111.17462734  .00017039  00000+0  68168-3 0  9992,2 47721  97.4272 187.6586 0009174 254.1297 105.8930 15.25114493 63398
47722,STARLINK-2068,2021,Active,+,LEO,260.0,1,95.59,USA,USA,Commercial,Communications,Falcon,1 47722U 21017A   22111.14723529  .00004170  00000+0  29855-3 0  9996,2 47722  53.0544  84.7141 0001830  61.9069 298.2105 15.06418164 63500
47723,STARLINK-2107,2021,Active,+,LEO,260.0,1,95.59,USA,USA,Commercial,Communications,Falcon,1 47723U 21017B   22110.84638211  .00000201  00000+0  32420-4 0  9990,2 47723  53.0548  21.0655 0001289  71.7931 288.3198 15.06395746 65014
47724,STARLINK-2116,2021,Active,+,LEO,260.0,1,95.59,USA,USA,Commercial,Communications,Falcon,1 47724U 21017C   22110.48516771  .00001932  00000+0  14855-3 0  9990,2 47724  53.0547  22.6826 0001734  68.9052 291.2122 15.06412092 64921
47725,STARLINK-2125,2021,Active,+,LEO,260.0,1,95.59,USA,USA,Commercial,Communications,Falcon,1 47725U 21017D   22111.18272180  .00000980  00000+0  84663-4 0  9999,2 47725  53.0548  89.5522 0001893  53.8168 306.2996 15.06403435 63437
47726,STARLINK-2126,2021,Active,+,LEO,260.0,1,95.59,USA,USA,Commercial,Communications,Falcon,1 47726U 21017E   22110.63720883 -.00000034  00000+0  16612-4 0  9997,2 47726  53.0546  91.9940 0001954  53.8493 306.2676 15.06398179 63978
47727,STARLINK-2129,2021,Active,+,LEO,260.0,1,95.59,USA,USA,Commercial,Communications,Falcon,1 47727U 21017F   22110.78738510  .00000641  00000+0  61919-4 0  9993,2 47727  53.0547  11.3285 0001809  57.2489 302.8674 15.06407381 65158
